
STARLINK-2166           
1 48558U 21041F   25061.10027883  .00018230  00000+0  12405-2 0  9998
2 48558  53.0559   4.2375 0001342  67.2714 292.8417 15.06372200209445
STARLINK-2187           
1 48562U 21041K   25061.14450593  .00017173  00000+0  11700-2 0  9997
2 48562  53.0557   4.0379 0001372 110.6273 249.4863 15.06366638209458
STARLINK-2188           
1 48563U 21041L   25061.09659093  .00017089  00000+0  11643-2 0  9990
2 48563  53.0555   4.2524 0001483  80.5378 279.5779 15.06369515209496
STARLINK-2190           
1 48564U 21041M   25061.15555863  .00017677  00000+0  12039-2 0  9991
2 48564  53.0554   3.9871 0001221  73.5244 286.5879 15.06360988209451
STARLINK-2191           
1 48565U 21041N   25061.10831547  .00091549  00000+0  16926-2 0  9992
2 48565  53.0497 332.7832 0003821 102.5818 257.5617 15.48309879209935
STARLINK-2214           
1 48566U 21041P   25061.17305775 -.00003831  00000+0 -23856-3 0  9999
2 48566  53.0551  13.8805 0001297  80.3375 279.7760 15.06379026209312
STARLINK-2217           
1 48568U 21041R   25061.13344622  .00015103  00000+0  10316-2 0  9990
2 48568  53.0560   4.0868 0001340  72.4824 287.6312 15.06364718209442
STARLINK-2219           
1 48569U 21041S   25061.15925431  .00018835  00000+0  12810-2 0  9992
2 48569  53.0544   3.9704 0001341  81.2004 278.9137 15.06369420209455
STARLINK-2220           
1 48570U 21041T   25061.14727125 -.00000631  00000+0 -23474-4 0  9990
2 48570  53.0559  14.0234 0001517  83.0817 277.0344 15.06385343209307
STARLINK-2221           
1 48571U 21041U   25061.15463878  .00015637  00000+0  10669-2 0  9994
2 48571  53.0567  13.9899 0001576 118.1127 242.0022 15.06379542209311
STARLINK-2222           
1 48572U 21041V   25061.08460353 -.00008389  00000+0 -54515-3 0  9999
2 48572  53.0564  14.3063 0001457 105.0276 255.0874 15.06386955209309
STARLINK-2224           
1 48573U 21041W   25060.86436504  .00011176  00000+0  76829-3 0  9994
2 48573  53.0563   5.2946 0001353  84.6809 275.4334 15.06385024209007
STARLINK-2225           
1 48574U 21041X   25061.16571675  .00023863  00000+0  16170-2 0  9996
2 48574  53.0559 334.0313 0001550 109.9117 250.2040 15.06364604209866
STARLINK-2227           
1 48575U 21041Y   25061.11506877  .00031825  00000+0  21469-2 0  9998
2 48575  53.0561 324.4867 0001619  99.6444 260.4728 15.06381397210069
STARLINK-2228           
1 48576U 21041Z   25060.98278661  .00009098  00000+0  62953-3 0  9991
2 48576  53.0564 339.7641 0001177  93.4820 266.6304 15.06362255209834
STARLINK-2231           
1 48577U 21041AA  25061.14822747  .00015171  00000+0  10361-2 0  9995
2 48577  53.0550   4.2897 0001532  73.4647 286.6510 15.06365936209499
STARLINK-2232           
1 48578U 21041AB  25061.15194527  .00016492  00000+0  11244-2 0  9993
2 48578  53.0558   4.5201 0001351  74.0228 286.0910 15.06369359209492
STARLINK-2234           
1 48580U 21041AD  25061.07862635 -.00002997  00000+0 -18252-3 0  9993
2 48580  53.0551 339.3409 0001516  83.1374 276.9787 15.06373391209843
STARLINK-2235           
1 48581U 21041AE  25060.77360978  .00008579  00000+0  59447-3 0  9994
2 48581  53.0572 330.7155 0000458  49.5198 310.5831 15.06376151209497
STARLINK-2236           
1 48582U 21041AF  25061.15328612  .00018720  00000+0  12728-2 0  9996
2 48582  53.0551 329.1667 0001183 107.8573 252.2545 15.06385383209981
STARLINK-2237           
1 48583U 21041AG  25061.09198044  .00010944  00000+0  75289-3 0  9996
2 48583  53.0566  14.2742 0001661 123.7396 236.3752 15.06378900209356
STARLINK-2238           
1 48584U 21041AH  25061.13253098  .00017268  00000+0  11761-2 0  9993
2 48584  53.0554  14.0896 0001511  75.2499 284.8657 15.06375498209307
STARLINK-2241           
1 48586U 21041AK  25061.13622212  .00021130  00000+0  14332-2 0  9993
2 48586  53.0559  14.0728 0001521 114.3828 245.7320 15.06399850209301
STARLINK-2245           
1 48589U 21041AN  25061.11502410  .00021000  00000+0  14257-2 0  9993
2 48589  53.0563   4.1705 0001485 107.5494 252.5658 15.06368103209493
STARLINK-2249           
1 48592U 21041AR  25061.12887147  .00016083  00000+0  10970-2 0  9994
2 48592  53.0560  14.3390 0001306  75.2709 284.8424 15.06370849209207
STARLINK-2250           
1 48593U 21041AS  25061.11410295  .00000217  00000+0  33450-4 0  9992
2 48593  53.0552  14.1724 0001275  80.8105 279.3029 15.06383101209200
STARLINK-2251           
1 48594U 21041AT  25061.00997884  .00013785  00000+0  94324-3 0  9995
2 48594  53.0565 344.7309 0001671 106.6961 253.4212 15.06370759209766
STARLINK-2252           
1 48595U 21041AU  25061.09563598  .00033748  00000+0  22711-2 0  9997
2 48595  53.0573  14.2565 0001759 121.2642 238.8519 15.06441979210172
STARLINK-2253           
1 48596U 21041AV  25061.11778409  .00011952  00000+0  82039-3 0  9993
2 48596  53.0555  14.1580 0001551  77.0583 283.0579 15.06377892209360
STARLINK-2255           
1 48597U 21041AW  25061.12515559  .00018060  00000+0  12287-2 0  9994
2 48597  53.0559  14.1232 0001536 112.9546 247.1605 15.06384685210170
STARLINK-2275           
1 48600U 21041AZ  25061.05972940  .00016364  00000+0  11156-2 0  9991
2 48600  53.0559   4.4175 0001185  87.1537 272.9588 15.06377010210301
STARLINK-2713           
1 48602U 21041BB  25061.05559511  .00018252  00000+0  12419-2 0  9999
2 48602  53.0559 349.4370 0001720  83.4802 276.6383 15.06373860210517
STARLINK-2714           
1 48603U 21041BC  25061.16752861  .00024730  00000+0  16747-2 0  9991
2 48603  53.0555 343.9341 0001474  67.4480 292.6665 15.06369404210601
STARLINK-2757           
1 48604U 21041BD  25061.16938585  .00017909  00000+0  12193-2 0  9992
2 48604  53.0557  13.9257 0001350  75.4237 284.6902 15.06365255210184
TYVAK-0130              
1 48606U 21041BF  25060.43647718  .00018643  00000+0  91839-3 0  9999
2 48606  53.0339  46.2156 0011498 130.9319 229.2672 15.17964027208330
SBIRS GEO-5 (USA 315)   
1 48618U 21042A   25060.97534486  .00000114  00000+0  00000+0 0  9999
2 48618   5.7533 326.3788 0002312   3.2857 202.3412  1.00271417 13991
HAIYANG-2D              
1 48621U 21043A   25061.13520954  .00000025  00000+0  96917-4 0  9996
2 48621  65.9980  39.9444 0008979 259.6644 100.3412 13.83372359191299
STARLINK-2739           
1 48639U 21044B   25061.17353838  .00015423  00000+0  10534-2 0  9992
2 48639  53.0549 348.9184 0001611  73.4557 286.6609 15.06351552208533
STARLINK-2736           
1 48640U 21044C   25060.96715345  .00011203  00000+0  77048-3 0  9991
2 48640  53.0550 350.1147 0001439 109.2837 250.8308 15.06367901208431
STARLINK-2754           
1 48641U 21044D   25061.04591352  .00018871  00000+0  12833-2 0  9990
2 48641  53.0561 354.4808 0001426 108.8421 251.2722 15.06372947208447
STARLINK-2646           
1 48642U 21044E   25061.12700674  .00020811  00000+0  14129-2 0  9996
2 48642  53.0549 354.1290 0001417 105.1915 254.9231 15.06373639208392
STARLINK-2704           
1 48643U 21044F   25060.90857202  .00003633  00000+0  26287-3 0  9994
2 48643  53.0587 355.0913 0000915 102.7399 257.3692 15.06369575207524
STARLINK-2695           
1 48644U 21044G   25061.10488325 -.00003723  00000+0 -23127-3 0  9996
2 48644  53.0561 354.2144 0001476 101.5377 258.5778 15.06379437208392
STARLINK-2733           
1 48645U 21044H   25061.15419627  .00172469  00000+0  88488-3 0  9994
2 48645  53.0504 332.6314 0001107 165.7273 194.3779 15.80248192208750
STARLINK-2732           
1 48646U 21044J   25061.03115531  .00018848  00000+0  12816-2 0  9990
2 48646  53.0567 354.5471 0001435 124.8315 235.2809 15.06377997208443
STARLINK-2521           
1 48648U 21044L   25061.04226046  .00048455  00000+0  32512-2 0  9999
2 48648  53.0558 354.6605 0001308 106.1864 253.9269 15.06381539208383
STARLINK-2673           
1 48649U 21044M   25061.09013782  .00018270  00000+0  12436-2 0  9991
2 48649  53.0552 354.2849 0001389 109.5972 250.5166 15.06359825208382
STARLINK-2672           
1 48650U 21044N   25061.08643633 -.00014917  00000+0 -98370-3 0  9994
2 48650  53.0562 354.2997 0002253  95.0394 265.0852 15.06431372208388
STARLINK-2731           
1 48651U 21044P   25061.08277437  .00015203  00000+0  10382-2 0  9993
2 48651  53.0556 354.3154 0001477  70.6885 289.4263 15.06369244208383
STARLINK-2727           
1 48652U 21044Q   25061.07908936  .00024891  00000+0  16853-2 0  9990
2 48652  53.0567 354.3331 0001956  73.0275 287.0928 15.06372301208385
STARLINK-2720           
1 48653U 21044R   25061.07540307  .00016500  00000+0  11247-2 0  9995
2 48653  53.0558 354.3484 0001670  81.6568 278.4610 15.06376923208384
STARLINK-2651           
1 48654U 21044S   25061.07171152  .00013138  00000+0  90003-3 0  9996
2 48654  53.0552 354.3654 0001264  81.0250 279.0882 15.06367286208446
STARLINK-2657           
1 48655U 21044T   25061.06801238  .00015520  00000+0  10593-2 0  9993
2 48655  53.0557 354.3753 0001315 119.2171 240.8950 15.06371211208383
STARLINK-2701           
1 48656U 21044U   25061.13069689  .00025917  00000+0  17534-2 0  9991
2 48656  53.0554 354.0990 0001440 104.1796 255.9353 15.06378777208395
STARLINK-2734           
1 48657U 21044V   25061.09281553  .00025379  00000+0  17158-2 0  9997
2 48657  53.0558 353.9118 0001783  90.7937 269.3256 15.06415970208452
STARLINK-2647           
1 48658U 21044W   25061.12331753 -.00004243  00000+0 -26633-3 0  9998
2 48658  53.0553 354.1325 0001454  75.0878 285.0272 15.06370110208455
STARLINK-2717           
1 48659U 21044X   25061.11962145 -.00007985  00000+0 -51822-3 0  9997
2 48659  53.0552 354.1509 0001479  72.9637 287.1513 15.06367932208397
STARLINK-2726           
1 48662U 21044AA  25061.04683410  .00017439  00000+0  11877-2 0  9996
2 48662  53.0560 344.4781 0001523  68.6126 291.5025 15.06370530208529
